NORAD_CAT_ID,OBJECT_NAME,OBJECT_TYPE,EPOCH,MEAN_MOTION,ECCENTRICITY,INCLINATION,RA_OF_ASC_NODE,ARG_OF_PERICENTER,MEAN_ANOMALY,BSTAR,MEAN_MOTION_DOT,MEAN_MOTION_DDOT,TLE_LINE0,TLE_LINE1,TLE_LINE2,SEMIMAJOR_AXIS,PERIOD,APOGEE,PERIGEE,DECAYED
55633.0,STARLINK-5498,PAYLOAD,2024-07-29 20:02:28,14.98328589,0.0003138,69.9979,246.6289,267.277,92.8029,1.0465e-05,3.2e-07,0.0,0 STARLINK-5498,1 55633U 23021F   24211.83505106  .00000032  00000-0  10465-4 0  9993,2 55633  69.9979 246.6289 0003138 267.2770  92.8029 14.98328589 80247,6950.197,96.107,574.243,569.881,0.0
55633.0,STARLINK-5498,PAYLOAD,2024-07-30 05:39:17,14.9832008,0.000299,69.9976,245.6184,267.6765,92.4052,-5.4674e-05,-7.45e-06,0.0,0 STARLINK-5498,1 55633U 23021F   24212.23562050 -.00000745  00000-0 -54674-4 0  9992,2 55633  69.9976 245.6184 0002990 267.6765  92.4052 14.98320080 80004,6950.224,96.108,574.167,570.01,0.0
55633.0,STARLINK-5498,PAYLOAD,2024-07-30 12:03:50,14.98316099,0.0003227,69.9978,244.9468,270.1295,89.9494,-7.6358e-05,-1.004e-05,0.0,0 STARLINK-5498,1 55633U 23021F   24212.50266585 -.00001004  00000-0 -76358-4 0  9998,2 55633  69.9978 244.9468 0003227 270.1295  89.9494 14.98316099 80347,6950.236,96.108,574.344,569.858,0.0
55633.0,STARLINK-5498,PAYLOAD,2024-07-30 20:04:30,14.98318243,0.0003093,69.9977,244.104,269.3984,90.682,-5.7398e-05,-7.78e-06,0.0,0 STARLINK-5498,1 55633U 23021F   24212.83646691 -.00000778  00000-0 -57398-4 0  9994,2 55633  69.9977 244.1040 0003093 269.3984  90.6820 14.98318243 80390,6950.229,96.108,574.244,569.945,0.0
55633.0,STARLINK-5498,PAYLOAD,2024-07-31 12:05:51,14.98321271,0.0003199,69.9975,242.4204,269.9108,90.1684,4.4749e-06,-4e-07,0.0,0 STARLINK-5498,1 55633U 23021F   24213.50406748 -.00000040  00000-0  44749-5 0  9994,2 55633  69.9975 242.4204 0003199 269.9108  90.1684 14.98321271 80491,6950.22,96.108,574.308,569.862,0.0
55633.0,STARLINK-5498,PAYLOAD,2024-08-01 12:07:52,14.98325805,0.0003258,69.9975,239.8954,270.859,89.2195,0.00022,2.533e-05,0.0,0 STARLINK-5498,1 55633U 23021F   24214.50546369  .00002533  00000-0  22000-3 0  9991,2 55633  69.9975 239.8954 0003258 270.8590  89.2195 14.98325805 80645,6950.206,96.107,574.335,569.806,0.0
55633.0,STARLINK-5498,PAYLOAD,2024-08-02 04:09:12,14.98336056,0.0003194,69.9973,238.2115,271.0758,89.0035,0.00016887,1.923e-05,0.0,0 STARLINK-5498,1 55633U 23021F   24215.17305829  .00001923  00000-0  16887-3 0  9997,2 55633  69.9973 238.2115 0003194 271.0758  89.0035 14.98336056 80442,6950.174,96.107,574.259,569.819,0.0
55633.0,STARLINK-5498,PAYLOAD,2024-08-02 12:09:52,14.9833864,0.000318,69.9975,237.37,270.4946,89.5849,0.00018941,2.168e-05,0.0,0 STARLINK-5498,1 55633U 23021F   24215.50685517  .00002168  00000-0  18941-3 0  9994,2 55633  69.9975 237.3700 0003180 270.4946  89.5849 14.98338640 80798,6950.166,96.106,574.241,569.821,0.0
55633.0,STARLINK-5498,PAYLOAD,2024-08-02 18:34:24,14.98344237,0.000316,69.9977,236.6965,274.3654,85.7144,8.5101e-05,9.23e-06,0.0,0 STARLINK-5498,1 55633U 23021F   24215.77389225  .00000923  00000-0  85101-4 0  9990,2 55633  69.9977 236.6965 0003160 274.3654  85.7144 14.98344237 80832,6950.149,96.106,574.21,569.818,0.0
55633.0,STARLINK-5498,PAYLOAD,2024-08-03 05:47:20,14.98343853,0.0003225,69.9978,235.5184,271.4278,88.6512,9.1319e-05,9.97e-06,0.0,0 STARLINK-5498,1 55633U 23021F   24216.24120916  .00000997  00000-0  91319-4 0  9992,2 55633  69.9978 235.5184 0003225 271.4278  88.6512 14.98343853 80605,6950.15,96.106,574.256,569.774,0.0
55633.0,STARLINK-5498,PAYLOAD,2024-08-03 08:59:36,14.98343831,0.0003226,69.9978,235.1821,269.5722,90.5068,8.571e-05,9.3e-06,0.0,0 STARLINK-5498,1 55633U 23021F   24216.37472803  .00000930  00000-0  85710-4 0  9996,2 55633  69.9978 235.1821 0003226 269.5722  90.5068 14.98343831 80921,6950.15,96.106,574.257,569.773,0.0
55633.0,STARLINK-5498,PAYLOAD,2024-08-04 04:13:13,14.98340215,0.0003164,69.9981,233.1623,268.8881,91.1915,-2.8104e-05,-4.28e-06,0.0,0 STARLINK-5498,1 55633U 23021F   24217.17584681 -.00000428  00000-0 -28104-4 0  9991,2 55633  69.9981 233.1623 0003164 268.8881  91.1915 14.98340215 80743,6950.161,96.106,574.225,569.827,0.0
55633.0,STARLINK-5498,PAYLOAD,2024-08-04 09:01:37,14.9833939,0.0003172,69.9982,232.6572,269.471,90.6086,-3.6606e-05,-5.3e-06,0.0,0 STARLINK-5498,1 55633U 23021F   24217.37612612 -.00000530  00000-0 -36606-4 0  9999,2 55633  69.9982 232.6572 0003172 269.4710  90.6086 14.98339390 81070,6950.164,96.106,574.233,569.824,0.0
55633.0,STARLINK-5498,PAYLOAD,2024-08-04 18:38:25,14.98337802,0.000324,69.998,231.6469,270.281,89.7978,-5.2982e-05,-7.25e-06,0.0,0 STARLINK-5498,1 55633U 23021F   24217.77668500 -.00000725  00000-0 -52982-4 0  9991,2 55633  69.9980 231.6469 0003240 270.2810  89.7978 14.98337802 81131,6950.169,96.106,574.286,569.782,0.0
55633.0,STARLINK-5498,PAYLOAD,2024-08-05 04:15:13,14.98336116,0.00032,69.9981,230.637,269.216,90.8632,-4.9986e-05,-6.9e-06,0.0,0 STARLINK-5498,1 55633U 23021F   24218.17724362 -.00000690  00000-0 -49986-4 0  9996,2 55633  69.9981 230.6370 0003200 269.2160  90.8632 14.98336116 80893,6950.174,96.107,574.263,569.815,0.0
55633.0,STARLINK-5498,PAYLOAD,2024-08-05 10:39:46,14.98336822,0.000322,69.9982,229.964,270.63,89.449,-4.6438e-05,-6.47e-06,0.0,0 STARLINK-5498,1 55633U 23021F   24218.44428279 -.00000647  00000-0 -46438-4 0  9995,2 55633  69.9982 229.9640 0003220 270.6300  89.4490 14.98336822 81238,6950.172,96.107,574.275,569.799,0.0
55633.0,STARLINK-5498,PAYLOAD,2024-08-06 04:17:15,14.98324775,0.0003017,69.9986,228.1121,268.1272,91.9541,-2.7908e-05,-4.26e-06,0.0,0 STARLINK-5498,1 55633U 23021F   24219.17864939 -.00000426  00000-0 -27908-4 0  9999,2 55633  69.9986 228.1121 0003017 268.1272  91.9541 14.98324775 81049,6950.209,96.107,574.171,569.977,0.0
55633.0,STARLINK-5498,PAYLOAD,2024-08-06 07:29:31,14.98325661,0.0003099,69.9987,227.7754,269.3406,90.7398,-3.9773e-05,-5.68e-06,0.0,0 STARLINK-5498,1 55633U 23021F   24219.31216952 -.00000568  00000-0 -39773-4 0  9991,2 55633  69.9987 227.7754 0003099 269.3406  90.7398 14.98325661 81366,6950.206,96.107,574.225,569.917,0.0
55633.0,STARLINK-5498,PAYLOAD,2024-08-06 17:06:19,14.98326305,0.0003033,69.999,226.7658,269.6944,90.3867,8.358e-06,7e-08,0.0,0 STARLINK-5498,1 55633U 23021F   24219.71272906  .00000007  00000-0  83580-5 0  9998,2 55633  69.9990 226.7658 0003033 269.6944  90.3867 14.98326305 81420,6950.204,96.107,574.177,569.961,0.0
55633.0,STARLINK-5498,PAYLOAD,2024-08-07 04:19:16,14.98331189,0.0003002,69.9988,225.5873,271.2776,88.8039,7.8003e-07,-8.4e-07,0.0,0 STARLINK-5498,1 55633U 23021F   24220.18004676 -.00000084  00000-0  78003-6 0  9999,2 55633  69.9988 225.5873 0003002 271.2776  88.8039 14.98331189 81194,6950.189,96.107,574.141,569.968,0.0
55633.0,STARLINK-5498,PAYLOAD,2024-08-08 10:45:48,14.9833354,0.0002792,69.9997,222.3903,261.4618,98.6225,0.00014802,1.674e-05,0.0,0 STARLINK-5498,1 55633U 23021F   24221.44848115  .00001674  00000-0  14802-3 0  9992,2 55633  69.9997 222.3903 0002792 261.4618  98.6225 14.98333540 81687,6950.182,96.107,573.987,570.106,0.0
55633.0,STARLINK-5498,PAYLOAD,2024-08-09 09:11:41,14.98332888,0.0003043,69.999,220.0328,267.7167,92.3644,3.3559e-05,3.07e-06,0.0,0 STARLINK-5498,1 55633U 23021F   24222.38312321  .00000307  00000-0  33559-4 0  9994,2 55633  69.9990 220.0328 0003043 267.7167  92.3644 14.98332888 81820,6950.184,96.107,574.164,569.934,0.0
55633.0,STARLINK-5498,PAYLOAD,2024-08-09 17:12:22,14.98330623,0.0003007,69.9995,219.1913,265.1374,94.9442,2.0226e-05,1.48e-06,0.0,0 STARLINK-5498,1 55633U 23021F   24222.71692475  .00000148  00000-0  20226-4 0  9992,2 55633  69.9995 219.1913 0003007 265.1374  94.9442 14.98330623 81577,6950.191,96.107,574.146,569.966,0.0
55633.0,STARLINK-5498,PAYLOAD,2024-08-10 09:13:43,14.98322432,0.0003076,69.9995,217.5086,271.4109,88.6697,9.9227e-05,1.091e-05,0.0,0 STARLINK-5498,1 55633U 23021F   24223.38452789  .00001091  00000-0  99227-4 0  9993,2 55633  69.9995 217.5086 0003076 271.4109  88.6697 14.98322432 81977,6950.216,96.107,574.219,569.943,0.0
55633.0,STARLINK-5498,PAYLOAD,2024-08-11 02:51:11,14.9833013,0.0002999,69.9993,215.6569,268.9453,91.1363,5.1213e-05,5.18e-06,0.0,0 STARLINK-5498,1 55633U 23021F   24224.11888352  .00000518  00000-0  51213-4 0  9990,2 55633  69.9993 215.6569 0002999 268.9453  91.1363 14.98330130 81788,6950.192,96.107,574.142,569.973,0.0
55633.0,STARLINK-5498,PAYLOAD,2024-08-11 22:04:48,14.9833239,0.0003019,69.9991,213.636,269.8357,90.2456,0.00011766,1.311e-05,0.0,0 STARLINK-5498,1 55633U 23021F   24224.92000071  .00001311  00000-0  11766-3 0  9993,2 55633  69.9991 213.6360 0003019 269.8357  90.2456 14.98332390 82201,6950.186,96.107,574.149,569.952,0.0
55633.0,STARLINK-5498,PAYLOAD,2024-08-12 04:29:20,14.98331016,0.0003066,69.9992,212.9626,269.3489,90.7319,0.00012379,1.384e-05,0.0,0 STARLINK-5498,1 55633U 23021F   24225.18704074  .00001384  00000-0  12379-3 0  9997,2 55633  69.9992 212.9626 0003066 269.3489  90.7319 14.98331016 81949,6950.19,96.107,574.186,569.924,0.0
55633.0,STARLINK-5498,PAYLOAD,2024-08-12 09:17:43,14.98338714,0.000302,69.9992,212.458,270.3203,89.761,0.00016806,1.913e-05,0.0,0 STARLINK-5498,1 55633U 23021F   24225.38731450  .00001913  00000-0  16806-3 0  9994,2 55633  69.9992 212.4580 0003020 270.3203  89.7610 14.98338714 81976,6950.166,96.106,574.13,569.932,0.0
55633.0,STARLINK-5498,PAYLOAD,2024-08-13 04:31:21,14.98327191,0.0002843,69.9994,210.4386,271.3116,88.7717,-1.9879e-05,-3.3e-06,0.0,0 STARLINK-5498,1 55633U 23021F   24226.18844625 -.00000330  00000-0 -19879-4 0  9990,2 55633  69.9994 210.4386 0002843 271.3116  88.7717 14.98327191 82094,6950.202,96.107,574.043,570.091,0.0
55633.0,STARLINK-5498,PAYLOAD,2024-08-13 09:19:45,14.98328569,0.0002947,69.9992,209.9331,270.6481,89.434,-1.0606e-05,-2.2e-06,0.0,0 STARLINK-5498,1 55633U 23021F   24226.38872521 -.00000220  00000-0 -10606-4 0  9995,2 55633  69.9992 209.9331 0002947 270.6481  89.4340 14.98328569 82424,6950.197,96.107,574.111,570.014,0.0
